OBJECT_NAME,OBJECT_ID,EPOCH,MEAN_MOTION,ECCENTRICITY,INCLINATION,RA_OF_ASC_NODE,ARG_OF_PERICENTER,MEAN_ANOMALY,EPHEMERIS_TYPE,CLASSIFICATION_TYPE,NORAD_CAT_ID,ELEMENT_SET_NO,REV_AT_EPOCH,BSTAR,MEAN_MOTION_DOT,MEAN_MOTION_DDOT
SPACEBEE-7,2018-099BL,2024-01-20T10:07:06.403296,15.07076316,.0012327,97.5716,86.3152,80.0763,280.1855,0,U,43816,999,27997,.83241E-3,.12462E-3,0
SPACEBEE-5,2018-099BM,2024-01-20T03:49:25.025088,15.56228638,.0004509,97.5600,101.7270,327.6038,32.4938,0,U,43817,999,28088,.39918E-2,.289806E-2,0
SPACEBEE-6,2018-099BN,2024-01-20T03:05:54.380832,15.13948246,.0011185,97.5641,89.4743,88.7686,271.4826,0,U,43818,999,28029,.14545E-2,.26414E-3,0
SPACEBEE-63,2021-006AF,2024-01-20T14:39:41.122368,15.43651074,.0004016,97.3573,82.1937,45.6988,314.4589,0,U,47442,999,16591,.14422E-2,.65351E-3,0
SPACEBEE-55,2021-006AY,2024-01-20T02:44:58.084224,15.50511798,.0005997,97.3477,83.9664,29.3046,330.8541,0,U,47459,999,16606,.15907E-2,.91649E-3,0
SPACEBEE-57,2021-006BE,2024-01-20T11:06:37.186560,15.43242874,.0003685,97.3514,81.1019,50.5671,309.5903,0,U,47465,999,16588,.14937E-2,.66775E-3,0
SPACEBEE-100,2021-059E,2024-01-20T09:20:41.632800,15.64306424,.0003893,97.6038,171.8466,276.5960,83.4855,0,U,48883,999,14289,.19125E-2,.186238E-2,0
SPACEBEE-101,2021-059F,2024-01-20T09:04:37.129728,15.60116426,.0004103,97.6046,171.1281,271.0283,89.0503,0,U,48884,999,14284,.17661E-2,.145561E-2,0
SPACEBEE-102,2021-059H,2024-01-20T08:51:40.706496,15.61270881,.0003879,97.6064,171.2946,274.5995,85.4819,0,U,48886,999,14285,.18522E-2,.15981E-2,0
SPACEBEE-104,2021-059M,2024-01-20T09:04:30.140832,15.66662808,.0004796,97.6019,172.3212,277.4222,82.6493,0,U,48890,999,14292,.19593E-2,.210128E-2,0
SPACEBEE-106,2021-059Q,2024-01-20T09:33:32.449536,15.60261357,.0004181,97.6063,171.6528,268.3020,91.7757,0,U,48893,999,14286,.17827E-2,.147784E-2,0
SPACEBEE-107,2021-059R,2024-01-20T08:46:17.285376,15.70030010,.000487,97.6046,173.4352,283.6549,76.4170,0,U,48894,999,14297,.19855E-2,.245194E-2,0
SPACEBEE-108,2021-059S,2024-01-20T08:47:09.148704,15.60634597,.0004254,97.6064,171.6547,264.8453,95.2318,0,U,48895,999,14286,.1788E-2,.150395E-2,0
SPACEBEE-105,2021-059T,2024-01-20T09:12:02.087136,15.65930246,.0003862,97.6048,172.2055,277.2746,82.8074,0,U,48896,999,14291,.19483E-2,.202711E-2,0
SPACEBEE-109,2021-059U,2024-01-20T08:24:22.483008,15.67693221,.0005017,97.6048,172.9456,276.7612,83.3077,0,U,48897,999,14294,.19291E-2,.215801E-2,0
SPACEBEE-110,2021-059W,2024-01-20T09:52:27.826752,15.67653270,.0004686,97.6049,173.3720,276.0039,84.0687,0,U,48899,999,14297,.18901E-2,.210957E-2,0
SPACEBEE-111,2021-059AB,2024-01-20T08:34:29.443872,15.77060879,.0005775,97.6030,174.9329,285.2173,74.8453,0,U,48904,999,14306,.20252E-2,.341217E-2,0
SPACEBEE-114,2022-026C,2024-01-20T14:10:54.903936,15.70189761,.0009021,97.4911,36.8587,44.0241,316.1738,0,U,52010,999,10323,.20826E-2,.259674E-2,0
SPACEBEE-126,2022-026D,2024-01-20T14:08:40.149312,15.70469979,.0008558,97.4884,36.7327,43.0078,317.1852,0,U,52011,999,10322,.22119E-2,.27962E-2,0
SPACEBEE-118,2022-026E,2024-01-20T13:44:17.088864,15.72067127,.0008619,97.4878,37.2402,45.8513,314.3457,0,U,52012,999,10326,.22219E-2,.300986E-2,0
SPACEBEE-120,2022-026F,2024-01-20T13:58:39.011808,15.70811357,.0008503,97.4875,36.8648,38.3549,321.8317,0,U,52013,999,10323,.22332E-2,.286566E-2,0
SPACEBEE-122,2022-026G,2024-01-20T14:20:22.347168,15.74464041,.000757,97.4854,37.2909,46.5777,313.6116,0,U,52014,999,10326,.22695E-2,.341839E-2,0
SPACEBEE-119,2022-026H,2024-01-20T13:19:54.591744,15.67123068,.0009412,97.4892,36.2257,41.0406,319.1561,0,U,52015,999,10318,.20709E-2,.227031E-2,0
SPACEBEE-115,2022-026J,2024-01-20T13:03:59.256576,15.64145750,.0010102,97.4930,36.1520,38.0540,322.1431,0,U,52016,999,10317,.2042E-2,.198264E-2,0
SPACEBEE-127,2022-026N,2024-01-20T14:39:22.136832,15.60434581,.0010995,97.4918,35.4999,36.0649,324.1347,0,U,52020,999,10309,.1949E-2,.163313E-2,0
SPACEBEE-125,2022-026P,2024-01-20T13:12:58.501440,15.73621812,.0008046,97.4854,37.3388,42.1974,317.9908,0,U,52021,999,10313,.22335E-2,.323903E-2,0
SPACEBEE-117,2022-026Q,2024-01-20T14:22:20.343648,15.62471894,.0010522,97.4925,35.9111,35.7766,324.4195,0,U,52022,999,10303,.19652E-2,.178358E-2,0
