43816,SPACEBEE-7,2018,95.55,2.0,+,97.57,Active,1,LEO,USA,USA,Commercial,Communications,Falcon,1 43816U 18099BL  24020.42160189  .00012462  00000+0  83241-3 0  9993,2 43816  97.5716  86.3152 0012327  80.0763 280.1855 15.07076316279972,15.07076316,0.0012327,LEO
43817,SPACEBEE-5,2018,92.56,2.0,+,97.56,Active,1,LEO,USA,USA,Commercial,Communications,Falcon,1 43817U 18099BM  24020.15931742  .00289806  00000+0  39918-2 0  9994,2 43817  97.5600 101.7270 0004509 327.6038  32.4938 15.56228638280888,15.56228638,0.0004509,LEO
43818,SPACEBEE-6,2018,95.12,2.0,+,97.56,Active,1,LEO,USA,USA,Commercial,Communications,Falcon,1 43818U 18099BN  24020.12910163  .00026414  00000+0  14545-2 0  9999,2 43818  97.5641  89.4743 0011185  88.7686 271.4826 15.13948246280296,15.13948246,0.0011185,LEO
47442,SPACEBEE-63,2021,93.3,-1.0,+,97.36,Active,0,LEO,USA,USA,Unknown,Unknown,Falcon,1 47442U 21006AF  24020.61089262  .00065351  00000+0  14422-2 0  9996,2 47442  97.3573  82.1937 0004016  45.6988 314.4589 15.43651074165910,15.43651074,0.0004016,LEO
47459,SPACEBEE-55,2021,92.88,2.0,+,97.35,Active,1,LEO,USA,USA,Commercial,Communications,Falcon,1 47459U 21006AY  24020.11456116  .00091649  00000+0  15907-2 0  9993,2 47459  97.3477  83.9664 0005997  29.3046 330.8541 15.50511798166063,15.50511798,0.0005997,LEO
47465,SPACEBEE-57,2021,93.32,2.0,+,97.35,Active,1,LEO,USA,USA,Commercial,Communications,Falcon,1 47465U 21006BE  24020.46293040  .00066775  00000+0  14937-2 0  9997,2 47465  97.3514  81.1019 0003685  50.5671 309.5903 15.43242874165880,15.43242874,0.0003685,LEO
48883,SPACEBEE-100,2021,92.08,2.0,+,97.6,Active,1,LEO,USA,USA,Commercial,Communications,Falcon,1 48883U 21059E   24020.38937075  .00186238  00000+0  19125-2 0  9995,2 48883  97.6038 171.8466 0003893 276.5960  83.4855 15.64306424142899,15.64306424,0.0003893,LEO
48884,SPACEBEE-101,2021,92.32,2.0,+,97.61,Active,1,LEO,USA,USA,Commercial,Communications,Falcon,1 48884U 21059F   24020.37820752  .00145561  00000+0  17661-2 0  9995,2 48884  97.6046 171.1281 0004103 271.0283  89.0503 15.60116426142844,15.60116426,0.0004103,LEO
48886,SPACEBEE-102,2021,92.25,2.0,+,97.61,Active,1,LEO,USA,USA,Commercial,Communications,Falcon,1 48886U 21059H   24020.36922114  .00159810  00000+0  18522-2 0  9990,2 48886  97.6064 171.2946 0003879 274.5995  85.4819 15.61270881142850,15.61270881,0.0003879,LEO
48890,SPACEBEE-104,2021,91.94,2.0,+,97.6,Active,1,LEO,USA,USA,Commercial,Communications,Falcon,1 48890U 21059M   24020.37812663  .00210128  00000+0  19593-2 0  9992,2 48890  97.6019 172.3212 0004796 277.4222  82.6493 15.66662808142921,15.66662808,0.0004796,LEO
48893,SPACEBEE-106,2021,92.31,2.0,+,97.61,Active,1,LEO,USA,USA,Commercial,Communications,Falcon,1 48893U 21059Q   24020.39829224  .00147784  00000+0  17827-2 0  9993,2 48893  97.6063 171.6528 0004181 268.3020  91.7757 15.60261357142863,15.60261357,0.0004181,LEO
48894,SPACEBEE-107,2021,91.75,2.0,+,97.61,Active,1,LEO,USA,USA,Commercial,Communications,Falcon,1 48894U 21059R   24020.36547784  .00245194  00000+0  19855-2 0  9996,2 48894  97.6046 173.4352 0004870 283.6549  76.4170 15.70030010142973,15.7003001,0.000487,LEO
48895,SPACEBEE-108,2021,92.29,2.0,+,97.61,Active,1,LEO,USA,USA,Commercial,Communications,Falcon,1 48895U 21059S   24020.36607811  .00150395  00000+0  17880-2 0  9999,2 48895  97.6064 171.6547 0004254 264.8453  95.2318 15.60634597142861,15.60634597,0.0004254,LEO
48896,SPACEBEE-105,2021,91.98,2.0,+,97.61,Active,1,LEO,USA,USA,Commercial,Communications,Falcon,1 48896U 21059T   24020.38335749  .00202711  00000+0  19483-2 0  9991,2 48896  97.6048 172.2055 0003862 277.2746  82.8074 15.65930246142914,15.65930246,0.0003862,LEO
48897,SPACEBEE-109,2021,91.88,2.0,+,97.6,Active,1,LEO,USA,USA,Commercial,Communications,Falcon,1 48897U 21059U   24020.35026022  .00215801  00000+0  19291-2 0  9991,2 48897  97.6048 172.9456 0005017 276.7612  83.3077 15.67693221142940,15.67693221,0.0005017,LEO
48899,SPACEBEE-110,2021,91.88,2.0,+,97.6,Active,1,LEO,USA,USA,Commercial,Communications,Falcon,1 48899U 21059W   24020.41143318  .00210957  00000+0  18901-2 0  9992,2 48899  97.6049 173.3720 0004686 276.0039  84.0687 15.67653270142977,15.6765327,0.0004686,LEO
48904,SPACEBEE-111,2021,91.35,2.0,+,97.6,Active,1,LEO,USA,USA,Commercial,Communications,Falcon,1 48904U 21059AB  24020.35728523  .00341217  00000+0  20252-2 0  9995,2 48904  97.6030 174.9329 0005775 285.2173  74.8453 15.77060879143064,15.77060879,0.0005775,LEO
52010,SPACEBEE-114,2022,91.74,2.0,+,97.49,Active,1,LEO,USA,USA,Commercial,Communications,Rocket,1 52010U 22026C   24020.59091324  .00259674  00000+0  20826-2 0  9993,2 52010  97.4911  36.8587 0009021  44.0241 316.1738 15.70189761103238,15.70189761,0.0009021,LEO
52011,SPACEBEE-126,2022,91.73,2.0,+,97.49,Active,1,LEO,USA,USA,Commercial,Communications,Rocket,1 52011U 22026D   24020.58935358  .00279620  00000+0  22119-2 0  9997,2 52011  97.4884  36.7327 0008558  43.0078 317.1852 15.70469979103229,15.70469979,0.0008558,LEO
52012,SPACEBEE-118,2022,91.64,2.0,+,97.49,Active,1,LEO,USA,USA,Commercial,Communications,Rocket,1 52012U 22026E   24020.57242001  .00300986  00000+0  22219-2 0  9994,2 52012  97.4878  37.2402 0008619  45.8513 314.3457 15.72067127103260,15.72067127,0.0008619,LEO
52013,SPACEBEE-120,2022,91.71,2.0,+,97.49,Active,1,LEO,USA,USA,Commercial,Communications,Rocket,1 52013U 22026F   24020.58239597  .00286566  00000+0  22332-2 0  9995,2 52013  97.4875  36.8648 0008503  38.3549 321.8317 15.70811357103238,15.70811357,0.0008503,LEO
52014,SPACEBEE-122,2022,91.52,2.0,+,97.49,Active,1,LEO,USA,USA,Commercial,Communications,Rocket,1 52014U 22026G   24020.59748087  .00341839  00000+0  22695-2 0  9993,2 52014  97.4854  37.2909 0007570  46.5777 313.6116 15.74464041103265,15.74464041,0.000757,LEO
52015,SPACEBEE-119,2022,91.92,2.0,+,97.49,Active,1,LEO,USA,USA,Commercial,Communications,Rocket,1 52015U 22026H   24020.55549296  .00227031  00000+0  20709-2 0  9992,2 52015  97.4892  36.2257 0009412  41.0406 319.1561 15.67123068103188,15.67123068,0.0009412,LEO
52016,SPACEBEE-115,2022,92.1,2.0,+,97.49,Active,1,LEO,USA,USA,Commercial,Communications,Rocket,1 52016U 22026J   24020.54443584  .00198264  00000+0  20420-2 0  9990,2 52016  97.4930  36.1520 0010102  38.0540 322.1431 15.64145750103175,15.6414575,0.0010102,LEO
52020,SPACEBEE-127,2022,92.31,2.0,+,97.49,Active,1,LEO,USA,USA,Commercial,Communications,Rocket,1 52020U 22026N   24020.61067288  .00163313  00000+0  19490-2 0  9998,2 52020  97.4918  35.4999 0010995  36.0649 324.1347 15.60434581103094,15.60434581,0.0010995,LEO
52021,SPACEBEE-125,2022,91.57,2.0,+,97.49,Active,1,LEO,USA,USA,Commercial,Communications,Rocket,1 52021U 22026P   24020.55067710  .00323903  00000+0  22335-2 0  9997,2 52021  97.4854  37.3388 0008046  42.1974 317.9908 15.73621812103137,15.73621812,0.0008046,LEO
52022,SPACEBEE-117,2022,92.2,2.0,+,97.49,Active,1,LEO,USA,USA,Commercial,Communications,Rocket,1 52022U 22026Q   24020.59884657  .00178358  00000+0  19652-2 0  9999,2 52022  97.4925  35.9111 0010522  35.7766 324.4195 15.62471894103035,15.62471894,0.0010522,LEO
